IRIDIUM 26              
1 24903U 97043A   25139.49977495  .00000450  00000+0  14476-3 0  9998
2 24903  86.3932 122.6745 0002320  93.6663 266.4800 14.37122524452624
IRIDIUM 22              
1 24907U 97043E   25139.47561013  .00000375  00000+0  12257-3 0  9996
2 24907  86.3939 126.1987 0002354  89.4582 270.6884 14.35938476452653
DUMMY MASS 1            
1 24925U 97048A   25139.54754593  .00000402  00000+0  41769-4 0  9998
2 24925  86.3341 148.5710 0004464 236.6466 123.4332 14.86964064500872
DUMMY MASS 2            
1 24926U 97048B   25139.57222855  .00000386  00000+0  40210-4 0  9994
2 24926  86.3343 150.1607 0005055 254.8312 105.2354 14.86716647500658
IRIDIUM 29              
1 24944U 97051A   25139.57833397  .00000403  00000+0  13092-3 0  9994
2 24944  86.3964 155.8950 0002362  85.7822 274.3645 14.36444142449167
IRIDIUM 33              
1 24946U 97051C   25139.52882920  .00000306  00000+0  10074-3 0  9996
2 24946  86.3878 155.1734 0008473 156.6814 203.4768 14.34876349448630
IRIDIUM 28              
1 24948U 97051E   25139.57041394  .00000338  00000+0  10661-3 0  9992
2 24948  86.3967 153.4318 0002375 101.9187 258.2277 14.37366928449736
IRIDIUM 36              
1 24967U 97056C   25139.53818336  .00000369  00000+0  11655-3 0  9990
2 24967  86.4005 185.0236 0002579  95.1285 265.0207 14.37588125448104
